FENGYUN 1C DEB          
1 36685U 99025DZF 17345.53136527  .00000835  00000-0  14713-3 0  9990
2 36685  98.8183 261.1329 0135924 121.0898 240.3724 14.64748437236173
